start=new Date('2022-04-23T00:00:00.000Z').valueOf();
sats=[{"PERIAPSIS":"348.741","MEAN_MOTION_DOT":"-0.00089304","BSTAR":"-0.00063741000000","CLASSIFICATION_TYPE":"U","FILE":"3411427","NORAD_CAT_ID":"51965","TLE_LINE2":"2 51965  53.2136 281.5121 0001324 109.5783 106.8376 15.73244999  8205","GP_ID":"201801837","REF_FRAME":"TEME","OBJECT_ID":"2022-025K","RA_OF_ASC_NODE":"281.5121","MEAN_ELEMENT_THEORY":"SGP4","OBJECT_NAME":"STARLINK-3696","APOAPSIS":"350.523","MEAN_MOTION":"15.73244999","PERIOD":"91.531","TLE_LINE1":"1 51965U 22025K   22112.66667824 -.00089304  00000-0 -63741-3 0  9990","INCLINATION":"53.2136","RCS_SIZE":"LARGE","EPOCH":"2022-04-22T16:00:00.999936","ECCENTRICITY":"0.00013240","TIME_SYSTEM":"UTC","SEMIMAJOR_AXIS":"6727.767","REV_AT_EPOCH":"820","MEAN_ANOMALY":"106.8376","ELEMENT_SET_NO":"999","CENTER_NAME":"EARTH","DECAY_DATE":null,"ARG_OF_PERICENTER":"109.5783","SITE":"AFETR","EPHEMERIS_TYPE":"0","OBJECT_TYPE":"PAYLOAD","COUNTRY_CODE":"US","MEAN_MOTION_DDOT":"0.0000000000000","LAUNCH_DATE":"2022-03-09"},{"REV_AT_EPOCH":"821","MEAN_ANOMALY":"121.7669","SEMIMAJOR_AXIS":"6727.745","TIME_SYSTEM":"UTC","CENTER_NAME":"EARTH","DECAY_DATE":null,"ELEMENT_SET_NO":"999","EPOCH":"2022-04-22T16:00:00.999936","ECCENTRICITY":"0.00009720","MEAN_MOTION_DDOT":"0.0000000000000","COUNTRY_CODE":"US","LAUNCH_DATE":"2022-03-09","ARG_OF_PERICENTER":"98.5050","SITE":"AFETR","OBJECT_TYPE":"PAYLOAD","EPHEMERIS_TYPE":"0","CLASSIFICATION_TYPE":"U","REF_FRAME":"TEME","FILE":"3411427","GP_ID":"201801393","TLE_LINE2":"2 51966  53.2140 281.5063 0000972  98.5050 121.7669 15.73252504  8211","NORAD_CAT_ID":"51966","MEAN_MOTION_DOT":"-0.00066603","PERIAPSIS":"348.957","BSTAR":"-0.00047284000000","TLE_LINE1":"1 51966U 22025L   22112.66667824 -.00066603  00000-0 -47284-3 0  9992","PERIOD":"91.530","INCLINATION":"53.2140","RCS_SIZE":"LARGE","OBJECT_ID":"2022-025L","OBJECT_NAME":"STARLINK-3699","APOAPSIS":"350.264","MEAN_MOTION":"15.73252504","RA_OF_ASC_NODE":"281.5063","MEAN_ELEMENT_THEORY":"SGP4"},{"BSTAR":"-0.00036799000000","PERIAPSIS":"349.140","MEAN_MOTION_DOT":"-0.00051935","GP_ID":"201834543","TLE_LINE2":"2 51967  53.2143 280.2733 0000940 105.6649  88.7849 15.73195833  8262","NORAD_CAT_ID":"51967","FILE":"3411768","REF_FRAME":"TEME","CLASSIFICATION_TYPE":"U","MEAN_ELEMENT_THEORY":"SGP4","RA_OF_ASC_NODE":"280.2733","APOAPSIS":"350.404","MEAN_MOTION":"15.73195833","OBJECT_NAME":"STARLINK-3695","OBJECT_ID":"2022-025M","RCS_SIZE":"LARGE","INCLINATION":"53.2143","PERIOD":"91.533","TLE_LINE1":"1 51967U 22025M   22112.91667824 -.00051935  00000-0 -36799-3 0  9992","ECCENTRICITY":"0.00009400","EPOCH":"2022-04-22T22:00:00.999936","ELEMENT_SET_NO":"999","DECAY_DATE":null,"CENTER_NAME":"EARTH","SEMIMAJOR_AXIS":"6727.907","TIME_SYSTEM":"UTC","MEAN_ANOMALY":"88.7849","REV_AT_EPOCH":"826","SITE":"AFETR","EPHEMERIS_TYPE":"0","OBJECT_TYPE":"PAYLOAD","ARG_OF_PERICENTER":"105.6649","LAUNCH_DATE":"2022-03-09","MEAN_MOTION_DDOT":"0.0000000000000","COUNTRY_CODE":"US"},{"REF_FRAME":"TEME","FILE":"3411458","GP_ID":"201827234","TLE_LINE2":"2 51968  53.2143 281.9162 0001115  92.6173  16.6370 15.73272765  3702","NORAD_CAT_ID":"51968","CLASSIFICATION_TYPE":"U","BSTAR":"-0.00043132000000","MEAN_MOTION_DOT":"-0.00060903","PERIAPSIS":"348.803","RCS_SIZE":"LARGE","INCLINATION":"53.2143","TLE_LINE1":"1 51968U 22025N   22112.58334491 -.00060903  00000-0 -43132-3 0  9991","PERIOD":"91.529","OBJECT_NAME":"STARLINK-3681","APOAPSIS":"350.303","MEAN_MOTION":"15.73272765","RA_OF_ASC_NODE":"281.9162","MEAN_ELEMENT_THEORY":"SGP4","OBJECT_ID":"2022-025N","CENTER_NAME":"EARTH","DECAY_DATE":null,"ELEMENT_SET_NO":"999","REV_AT_EPOCH":"370","MEAN_ANOMALY":"16.6370","TIME_SYSTEM":"UTC","SEMIMAJOR_AXIS":"6727.688","ECCENTRICITY":"0.00011150","EPOCH":"2022-04-22T14:00:01.000224","COUNTRY_CODE":"US","MEAN_MOTION_DDOT":"0.0000000000000","LAUNCH_DATE":"2022-03-09","ARG_OF_PERICENTER":"92.6173","SITE":"AFETR","OBJECT_TYPE":"PAYLOAD","EPHEMERIS_TYPE":"0"},{"ELEMENT_SET_NO":"999","CENTER_NAME":"EARTH","DECAY_DATE":null,"SEMIMAJOR_AXIS":"6727.741","TIME_SYSTEM":"UTC","REV_AT_EPOCH":"822","MEAN_ANOMALY":"127.8172","ECCENTRICITY":"0.00012550","EPOCH":"2022-04-22T16:00:00.999936","COUNTRY_CODE":"US","MEAN_MOTION_DDOT":"0.0000000000000","LAUNCH_DATE":"2022-03-09","ARG_OF_PERICENTER":"90.5089","OBJECT_TYPE":"PAYLOAD","SITE":"AFETR","EPHEMERIS_TYPE":"0","FILE":"3411427","GP_ID":"201801391","TLE_LINE2":"2 51969  53.2139 281.5094 0001255  90.5089 127.8172 15.73254193  8228","NORAD_CAT_ID":"51969","REF_FRAME":"TEME","CLASSIFICATION_TYPE":"U","BSTAR":"-0.00066949000000","PERIAPSIS":"348.761","MEAN_MOTION_DOT":"-0.00093754","INCLINATION":"53.2139","RCS_SIZE":"LARGE","PERIOD":"91.530","TLE_LINE1":"1 51969U 22025P   22112.66667824 -.00093754  00000-0 -66949-3 0  9991","RA_OF_ASC_NODE":"281.5094","MEAN_ELEMENT_THEORY":"SGP4","OBJECT_NAME":"STARLINK-3680","MEAN_MOTION":"15.73254193","APOAPSIS":"350.450","OBJECT_ID":"2022-025P"},{"CENTER_NAME":"EARTH","DECAY_DATE":null,"ELEMENT_SET_NO":"999","REV_AT_EPOCH":"821","MEAN_ANOMALY":"144.2441","TIME_SYSTEM":"UTC","SEMIMAJOR_AXIS":"6727.802","ECCENTRICITY":"0.00009740","EPOCH":"2022-04-22T16:00:00.999936","COUNTRY_CODE":"US","MEAN_MOTION_DDOT":"0.0000000000000","LAUNCH_DATE":"2022-03-09","ARG_OF_PERICENTER":"78.5994","SITE":"AFETR","OBJECT_TYPE":"PAYLOAD","EPHEMERIS_TYPE":"0","REF_FRAME":"TEME","FILE":"3411427","GP_ID":"201801839","TLE_LINE2":"2 51970  53.2142 281.5023 0000974  78.5994 144.2441 15.73232513  8217","NORAD_CAT_ID":"51970","CLASSIFICATION_TYPE":"U","BSTAR":"-0.00066222000000","MEAN_MOTION_DOT":"-0.00092666","PERIAPSIS":"349.012","RCS_SIZE":"LARGE","INCLINATION":"53.2142","TLE_LINE1":"1 51970U 22025Q   22112.66667824 -.00092666  00000-0 -66222-3 0  9998","PERIOD":"91.531","OBJECT_NAME":"STARLINK-3677","APOAPSIS":"350.323","MEAN_MOTION":"15.73232513","RA_OF_ASC_NODE":"281.5023","MEAN_ELEMENT_THEORY":"SGP4","OBJECT_ID":"2022-025Q"},{"OBJECT_ID":"2022-025R","APOAPSIS":"350.372","MEAN_MOTION":"15.73250031","OBJECT_NAME":"STARLINK-3669","MEAN_ELEMENT_THEORY":"SGP4","RA_OF_ASC_NODE":"281.5073","TLE_LINE1":"1 51971U 22025R   22112.66667824 -.00084559  00000-0 -60285-3 0  9994","PERIOD":"91.530","RCS_SIZE":"LARGE","INCLINATION":"53.2139","MEAN_MOTION_DOT":"-0.00084559","PERIAPSIS":"348.863","BSTAR":"-0.00060285000000","CLASSIFICATION_TYPE":"U","REF_FRAME":"TEME","GP_ID":"201801433","TLE_LINE2":"2 51971  53.2139 281.5073 0001122 103.8797 115.7581 15.73250031  8233","NORAD_CAT_ID":"51971","FILE":"3411438","EPHEMERIS_TYPE":"0","SITE":"AFETR","OBJECT_TYPE":"PAYLOAD","ARG_OF_PERICENTER":"103.8797","LAUNCH_DATE":"2022-03-09","MEAN_MOTION_DDOT":"0.0000000000000","COUNTRY_CODE":"US","EPOCH":"2022-04-22T16:00:00.999936","ECCENTRICITY":"0.00011220","MEAN_ANOMALY":"115.7581","REV_AT_EPOCH":"823","TIME_SYSTEM":"UTC","SEMIMAJOR_AXIS":"6727.753","DECAY_DATE":null,"CENTER_NAME":"EARTH","ELEMENT_SET_NO":"999"},{"BSTAR":"-0.00041972000000","PERIAPSIS":"348.815","MEAN_MOTION_DOT":"-0.00059298","TLE_LINE2":"2 51972  53.2146 281.9121 0001088  98.9369  12.9167 15.73274924  3702","NORAD_CAT_ID":"51972","GP_ID":"201827568","FILE":"3411458","REF_FRAME":"TEME","CLASSIFICATION_TYPE":"U","MEAN_ELEMENT_THEORY":"SGP4","RA_OF_ASC_NODE":"281.9121","MEAN_MOTION":"15.73274924","APOAPSIS":"350.279","OBJECT_NAME":"STARLINK-3671","OBJECT_ID":"2022-025S","INCLINATION":"53.2146","RCS_SIZE":"LARGE","PERIOD":"91.529","TLE_LINE1":"1 51972U 22025S   22112.58334491 -.00059298  00000-0 -41972-3 0  9991","ECCENTRICITY":"0.00010880","EPOCH":"2022-04-22T14:00:01.000224","ELEMENT_SET_NO":"999","DECAY_DATE":null,"CENTER_NAME":"EARTH","TIME_SYSTEM":"UTC","SEMIMAJOR_AXIS":"6727.682","MEAN_ANOMALY":"12.9167","REV_AT_EPOCH":"370","SITE":"AFETR","OBJECT_TYPE":"PAYLOAD","EPHEMERIS_TYPE":"0","ARG_OF_PERICENTER":"98.9369","LAUNCH_DATE":"2022-03-09","COUNTRY_CODE":"US","MEAN_MOTION_DDOT":"0.0000000000000"},{"EPHEMERIS_TYPE":"0","SITE":"AFETR","OBJECT_TYPE":"PAYLOAD","ARG_OF_PERICENTER":"84.8771","LAUNCH_DATE":"2022-03-09","MEAN_MOTION_DDOT":"0.0000000000000","COUNTRY_CODE":"US","ECCENTRICITY":"0.00012500","EPOCH":"2022-04-22T16:00:00.999936","ELEMENT_SET_NO":"999","DECAY_DATE":null,"CENTER_NAME":"EARTH","TIME_SYSTEM":"UTC","SEMIMAJOR_AXIS":"6727.755","MEAN_ANOMALY":"137.3045","REV_AT_EPOCH":"821","MEAN_ELEMENT_THEORY":"SGP4","RA_OF_ASC_NODE":"281.5022","MEAN_MOTION":"15.73249000","APOAPSIS":"350.461","OBJECT_NAME":"STARLINK-3679","OBJECT_ID":"2022-025T","INCLINATION":"53.2142","RCS_SIZE":"LARGE","PERIOD":"91.530","TLE_LINE1":"1 51973U 22025T   22112.66667824 -.00098539  00000-0 -70444-3 0  9997","BSTAR":"-0.00070444000000","PERIAPSIS":"348.780","MEAN_MOTION_DOT":"-0.00098539","NORAD_CAT_ID":"51973","TLE_LINE2":"2 51973  53.2142 281.5022 0001250  84.8771 137.3045 15.73249000  8212","GP_ID":"201801430","FILE":"3411438","REF_FRAME":"TEME","CLASSIFICATION_TYPE":"U"},{"BSTAR":"-0.00065363000000","MEAN_MOTION_DOT":"-0.00091508","PERIAPSIS":"348.895","REF_FRAME":"TEME","GP_ID":"201801434","TLE_LINE2":"2 51974  53.2155 280.7896 0001124 117.7992  93.2842 15.73238283  8214","NORAD_CAT_ID":"51974","FILE":"3411438","CLASSIFICATION_TYPE":"U","APOAPSIS":"350.407","MEAN_MOTION":"15.73238283","OBJECT_NAME":"STARLINK-3672","MEAN_ELEMENT_THEORY":"SGP4","RA_OF_ASC_NODE":"280.7896","OBJECT_ID":"2022-025U","RCS_SIZE":"LARGE","INCLINATION":"53.2155","TLE_LINE1":"1 51974U 22025U   22112.66667824 -.00091508  00000-0 -65363-3 0  9991","PERIOD":"91.531","ECCENTRICITY":"0.00011240","EPOCH":"2022-04-22T16:00:00.999936","DECAY_DATE":null,"CENTER_NAME":"EARTH","ELEMENT_SET_NO":"999","MEAN_ANOMALY":"93.2842","REV_AT_EPOCH":"821","TIME_SYSTEM":"UTC","SEMIMAJOR_AXIS":"6727.786","OBJECT_TYPE":"PAYLOAD","SITE":"AFETR","EPHEMERIS_TYPE":"0","ARG_OF_PERICENTER":"117.7992","LAUNCH_DATE":"2022-03-09","COUNTRY_CODE":"US","MEAN_MOTION_DDOT":"0.0000000000000"}];
